ONEWEB-0414             
1 50491U 21132Y   25283.53672948  .00000146  00000+0  33705-3 0  9993
2 50491  87.9229  25.0078 0001554  98.1463 261.9845 13.18687198188729
ONEWEB-0417             
1 50492U 21132Z   25283.69673269  .00000013  00000+0  22482-6 0  9994
2 50492  87.9230  25.0098 0001901  94.2043 265.9307 13.18686523188729
ONEWEB-0418             
1 50493U 21132AA  25283.25123440  .00000045  00000+0  82428-4 0  9997
2 50493  87.9228  25.0833 0002065  87.2556 272.8812 13.18686911188726
ONEWEB-0419             
1 50494U 21132AB  25283.34538694  .00000048  00000+0  88238-4 0  9997
2 50494  87.9227  25.0648 0002188 100.2431 259.8948 13.18687820188651
ONEWEB-0420             
1 50495U 21132AC  25283.53838105  .00000130  00000+0  29604-3 0  9992
2 50495  87.9226  25.0373 0001715 112.8428 247.2886 13.18686826188675
ONEWEB-0421             
1 50496U 21132AD  25283.75940223  .00000072  00000+0  15088-3 0  9998
2 50496  87.9228  24.9870 0001430  98.6859 261.4435 13.18688821188744
ONEWEB-0424             
1 50497U 21132AE  25283.34042412  .00000095  00000+0  20841-3 0  9995
2 50497  87.9231  25.0657 0002238 101.9752 258.1631 13.18688062188716
ONEWEB-0426             
1 50498U 21132AF  25283.52848726  .00000198  00000+0  47008-3 0  9996
2 50498  87.9225  25.0195 0001559  78.1256 282.0051 13.18687695188685
